#dP2022 11 28  0  0  0.00000000      96 __u+U ITR00 FIT  IAC
## 2238  86400.00000000   900.00000000 59911 0.0000000000000
+  118   C06C07C08C09C10C11C12C13C14C16C19C20C21C22C23C24C25
+        C26C27C28C29C30C32C33C34C35C36C37C38C39C40C41C42C43
+        C44C45C46E01E02E03E04E05E07E08E09E10E11E12E13E14E15
+        E18E19E21E24E25E26E27E30E31E33E34E36G01G02G03G04G05
+        G06G07G08G09G10G11G12G13G14G15G16G17G18G19G20G21G22
+        G23G24G25G26G27G29G30G31G32J02J03J04R01R02R03R04R05
+        R07R08R09R11R12R13R14R15R17R18R19R20R21R22R24R25  0
++         8  7 11  8  6  7  7 10  8  7  6  6  7  7  6  7  7
++         6  7  7  7  8  7  6  6  8  6  6  8  7  9  7  7  6
++         9  7  7  7  6  7  7  7  7  7  7  8  7  6  6  7  6
++         6  7  7  7  7  7  7  6  7  6  7  8  7  7  7  6  7
++         7  6  6  6  6  7  6  7  7  7  7  7  7  6  7  6  7
++         6  6  7  7  7  6  7  6  6 10  9  7  8  7  7  8  8
++         6  7  8  7  7  7  7  8  6  7  7  9  7  7  8  7  0
%c M  cc GPS ccc cccc cccc cccc cccc ccccc ccccc ccccc ccccc
%c cc cc ccc ccc cccc cccc cccc cccc ccccc ccccc ccccc ccccc
%f  0.0000000  0.000000000  0.00000000000  0.000000000000000
%f  0.0000000  0.000000000  0.00000000000  0.000000000000000
%i    0    0    0    0      0      0      0      0         0
%i    0    0    0    0      0      0      0      0         0
/* INFORMATION & ANALYSIS CENTER (IAC)      ULTRA-RAPID DATA
/* S/V CLOCKS ARE ALIGNED TO GNSS TIME                      
/* G:C1WC2W R:C1PC2P E:C1XC5X C:C2IC6I J:C1CC2S             
/* PCV:IGS14_2233 OL/AL:FES2004  NONE     YN ORB:CoN CLK:CoN
*  2022 11 28  8  0  0.00000000
PC06 -13892.628742  25568.391415  30439.315394    228.022304
PC07 -10247.532191  40872.246724   3114.735752    151.804712
PC08    717.396072  26855.746225 -32431.964940    517.320662
PC09  -4785.065135  25286.608929  33690.270047   -796.044942
PC10  -4690.528780  42018.794108  -3337.767531     60.912590
PC11  -1968.323336  16332.806292 -22471.792860   -266.891024
PC12 -19869.138222  15498.727957 -11961.543943    321.180816
PC13   7904.035806  30945.900952 -27204.981693    144.574330
PC14    -69.403197  27255.004588   6121.471694    215.823662
PC16 -19645.936464  24615.721146  28083.425206    110.400459
PC19  -6364.206990 -22971.850456 -14483.836820   -909.072341
PC20   5430.897431 -27318.901804   1536.501672    823.667908
PC21 -14858.827562  15491.607998 -17830.074756   -918.414390
PC22 -15066.110415  -5135.793882 -22927.395723   -769.427402
PC23  23854.022768  11922.332428  -8202.296595   -874.260931
PC24  -2671.425311  17711.417475  21376.797850   -747.229059
PC25  16623.622340  20711.577265   8518.232529     31.335533
PC26 -17477.806390   5516.161326  21038.862968    -42.201782
PC27  24903.884583 -11979.620018   3905.471457     58.086007
PC28  24937.298637    135.366077 -12512.703340     41.064491
PC29 -10145.332650 -12848.011244  22597.692731     46.476921
PC30  10888.314755 -18152.442617  18191.732518      1.093273
PC32  14783.259759 -15487.915155  17905.321240   -701.787699
PC33   6460.925953  23016.181874  14401.155244   -903.212024
PC34  -9636.526374  18164.901949 -18863.366662     49.137463
PC35 -24248.676142   -518.710021  13770.029760    108.490412
PC36 -15688.317351 -21222.634948  -9068.602095   -807.696193
PC37  18448.525953  -3968.515509 -20539.298005   -902.863120
PC38  -7306.075596  23824.863793 -33958.648084     41.218819
PC39 -23007.464620  25063.546402  24796.390382     -0.951894
PC40 -16683.561803  38246.411668   6782.781675     -9.032770
PC41  14994.309388   5761.350721  22864.698062   -322.515783
PC42  -6120.381720  27098.951528  -2671.770874   -747.780278
PC43   9360.628153  13384.790258 -22632.876432     27.309581
PC44 -24498.645949  12802.368001  -3721.969250    127.950790
PC45 -23858.901850 -11700.293633   8566.978714    -27.938282
PC46    721.480432 -18589.705916 -20817.071319    -15.959787
PE01 -18381.867832  -5833.073501  22462.116390   -571.752583
PE02  18340.076897   5508.428588 -22565.319211      5.295595
PE03  22204.899406  -6181.778834  18558.450973   -624.398183
PE04 -20232.096106  21458.274312  -2498.792103     -2.429589
PE05  11164.229289  13093.140794  24080.403471   -120.333332
PE07   6210.992987 -24445.649825 -15492.100711     -2.852264
PE08  20171.307517 -21511.065431   2521.748490   -639.691031
PE09  -6420.930158  24458.462519  15387.742419   -744.851433
PE10  -9987.254697  14041.789620 -24071.086959   -493.958898
PE11   2383.740472  16502.567027 -24461.874574   1118.427939
PE12 -19681.890197   9680.568875 -19869.021320   -301.439544
PE13  -1350.090018 -16332.689423  24657.046507    430.515407
PE14 -23204.194281  19128.824692   1778.389888     69.250235
PE15  19910.968978  -9510.359956  19738.926335    704.528009
PE18  22969.151969  -7952.573516 -11052.198251   -691.556976
PE19 -21349.966165   3563.653492 -20188.426986  -3882.416271
PE21 -15800.659855 -22785.695853  10375.931441   -497.208353
PE24   3173.377875  27884.788406   9351.985839   -971.889425
PE25  15668.433933  22983.815598 -10094.982789   -593.700354
PE26 -22222.712805 -13328.597564  14323.715022  -1896.570812
PE27  -3995.168488 -28074.375300  -8514.106192   -450.209563
PE30  10622.926531 -16078.963515 -22480.512327  -1034.323780
PE31 -10066.750652  16766.096367  22225.547902   -509.287273
PE33 -29284.852593  -2895.234989  -3183.879108   -455.630532
PE34  29274.247067   2721.459037   3366.672912    -16.861714
PE36  21599.062346  13508.805049 -15065.372181   -467.380599
PG01  19002.722066  13948.479982 -12883.370658    245.337836
PG02 -21220.866063 -11607.687613  11363.321909   -635.756094
PG03  12255.438061  21912.681735   8708.430364   -374.525567
PG04  10390.165254  11092.501867  21783.778505    -78.520827
PG05  -5462.087134 -25583.615242   4032.039744   -105.997899
PG06  17664.890473  -7832.399050  18323.866758    528.552386
PG07  26040.592682   6390.822943   -489.771987    281.792264
PG08    786.404903  18540.450296 -18900.097665    -95.981683
PG09  18557.314111   -206.657897  18937.947291   -261.954427
PG10 -13206.901144   7197.460993 -21703.762929    -13.770614
PG11   5404.464643 -14163.103069  21815.564978    -47.095585
PG12 -10287.524860 -23168.609931   7833.893527   -309.506767
PG13   8296.214920 -19943.213691 -15505.078143    432.499594
PG14  14705.512033  -4741.611492 -21592.275035    -76.679472
PG15  -3667.505323 -18645.513025 -18895.315376     -8.674834
PG16   -916.158726  24978.880777   7971.550834   -526.713760
PG17  21963.735310 -11604.427443  -9067.027010    681.601898
PG18 -25987.234826  -4756.171709  -3415.640887    -38.521591
PG19  19912.529459 -17317.254641    979.630732    243.291210
PG20   2375.061348 -21489.565152  15595.163070    467.138519
PG21  12500.099401  14786.577294 -17905.423534    155.087437
PG22 -17599.925672  19354.789483   4425.593900    373.633020
PG23 -16209.370801  -4984.918362 -20481.695088     -0.656393
PG24 -16074.460265 -14615.939320 -15892.911613     39.943476
PG25 -15678.760954 -14733.725885  15454.619845    396.913389
PG26  -7133.503035  18495.664541  17418.972869    237.049412
PG27  -9957.965570  21622.561221 -11561.670351    167.346584
PG29 -17140.549078  -2895.153543  20062.756094   -570.282102
PG30  23692.154669  -2694.320958 -11871.825896   -536.200861
PG31 -16960.393088   8829.695034  18462.133739   -201.583394
PG32 -20859.596876  14602.778801  -7029.225313   -311.096947
PJ02 -25733.012412  24556.362914  27731.633700     -0.207030
PJ03 -33722.814464  18653.166220 -12343.214384     -5.512220
PJ04 -20850.113481  31492.995530 -13685.797847    113.878898
PR01  12710.501483 -17151.784736  13953.524955     18.616245
PR02   6665.180006 -24244.880031  -4476.250330    -23.392486
PR03  -3599.597208 -16617.393984 -19002.698240     68.070338
PR04 -11379.410587    144.898043 -22804.755469    166.556282
PR05 -13141.287331  16698.533155 -14082.471150    103.637204
PR07   4111.283817  15887.286599  19540.400248     45.114185
PR08  11575.097658   -351.862364  22782.454610    -68.310152
PR09   4512.411126  18065.925576  17486.879698     90.027144
PR11  18400.833440  11188.120084 -13671.827987     18.285270
PR12   9838.608354  -5355.652772 -22892.222309     23.207016
PR13  -3189.263540 -17160.212165 -18620.089603    -29.386705
PR14 -15845.945374 -19863.373951  -2152.928983     24.078594
PR15 -18168.051936 -10501.357113  14520.074672     92.690164
PR17 -12221.369284  -7588.553545  21090.720797    582.080613
PR18 -23813.622208   -171.006869   9099.054437     54.160587
PR19 -23884.233501   6208.808053  -6465.368366   -212.578964
PR20  -8014.929201  10794.714151 -21654.163462    -82.966964
PR21  13661.119912   6986.956987 -20360.715289   -353.221601
PR22  24134.726241    799.147488  -8204.987508     19.671059
PR24   6924.130961 -11479.795271  21719.592442    129.298894
PR25  11394.856905   8600.901708 -21123.519711     47.468895
EOF
